{
  "type": "FeatureCollection",
  "features": [
    {
      "type": "Feature",
      "properties": {
        "norad_id": 55973,
        "name": "TIANMU-1 03",
        "group": "weather",
        "lat": 45.56748922156523,
        "lon": 144.1525993211899,
        "alt_km": 436.3086220123878,
        "timestamp": "2025-12-15T04:01:20.086673+00:00",
        "meta_object_name": "TIANMU-1 03",
        "meta_object_id": "2023-039A",
        "meta_epoch": "2025-12-14T07:33:48.037248",
        "meta_mean_motion": 15.40982486,
        "meta_eccentricity": 0.00043491,
        "meta_inclination": 97.5104,
        "meta_ra_of_asc_node": 151.0103,
        "meta_arg_of_pericenter": 56.5374,
        "meta_mean_anomaly": 303.6287,
        "meta_ephemeris_type": 0,
        "meta_classification_type": "U",
        "meta_norad_cat_id": 55973,
        "meta_element_set_no": 999,
        "meta_rev_at_epoch": 15230,
        "meta_bstar": 0.00040751138,
        "meta_mean_motion_dot": 0.00016727,
        "meta_mean_motion_ddot": 0,
        "tle_line1": "1 55973U 23039A   25348.31513932  .00016727  00000+0  40751-3 0  9997",
        "tle_line2": "2 55973  97.5104 151.0103 0004349  56.5374 303.6287 15.40982486152305"
      },
      "geometry": {
        "type": "Point",
        "coordinates": [
          144.1525993211899,
          45.56748922156523
        ]
      }
    },
    {
      "type": "Feature",
      "properties": {
        "norad_id": 55974,
        "name": "TIANMU-1 04",
        "group": "weather",
        "lat": 16.60748838193036,
        "lon": -26.670491501103548,
        "alt_km": 444.27581749897945,
        "timestamp": "2025-12-15T04:01:20.086742+00:00",
        "meta_object_name": "TIANMU-1 04",
        "meta_object_id": "2023-039B",
        "meta_epoch": "2025-12-14T08:37:11.807616",
        "meta_mean_motion": 15.41322685,
        "meta_eccentricity": 0.00050029,
        "meta_inclination": 97.5037,
        "meta_ra_of_asc_node": 150.2459,
        "meta_arg_of_pericenter": 51.166,
        "meta_mean_anomaly": 309.0032,
        "meta_ephemeris_type": 0,
        "meta_classification_type": "U",
        "meta_norad_cat_id": 55974,
        "meta_element_set_no": 999,
        "meta_rev_at_epoch": 15231,
        "meta_bstar": 0.00040681094,
        "meta_mean_motion_dot": 0.00016889,
        "meta_mean_motion_ddot": 0,
        "tle_line1": "1 55974U 23039B   25348.35916444  .00016889  00000+0  40681-3 0  9998",
        "tle_line2": "2 55974  97.5037 150.2459 0005002  51.1660 309.0032 15.41322685152311"
      },
      "geometry": {
        "type": "Point",
        "coordinates": [
          -26.670491501103548,
          16.60748838193036
        ]
      }
    },
    {
      "type": "Feature",
      "properties": {
        "norad_id": 55975,
        "name": "TIANMU-1 05",
        "group": "weather",
        "lat": -11.721279482593868,
        "lon": -29.999134288965806,
        "alt_km": 449.2828508237635,
        "timestamp": "2025-12-15T04:01:20.086762+00:00",
        "meta_object_name": "TIANMU-1 05",
        "meta_object_id": "2023-039C",
        "meta_epoch": "2025-12-14T08:29:29.197824",
        "meta_mean_motion": 15.40941853,
        "meta_eccentricity": 0.00043263,
        "meta_inclination": 97.5083,
        "meta_ra_of_asc_node": 150.7329,
        "meta_arg_of_pericenter": 73.3574,
        "meta_mean_anomaly": 286.8147,
        "meta_ephemeris_type": 0,
        "meta_classification_type": "U",
        "meta_norad_cat_id": 55975,
        "meta_element_set_no": 999,
        "meta_rev_at_epoch": 15229,
        "meta_bstar": 0.0004131456,
        "meta_mean_motion_dot": 0.00016937,
        "meta_mean_motion_ddot": 0,
        "tle_line1": "1 55975U 23039C   25348.35381016  .00016937  00000+0  41315-3 0  9999",
        "tle_line2": "2 55975  97.5083 150.7329 0004326  73.3574 286.8147 15.40941853152291"
      },
      "geometry": {
        "type": "Point",
        "coordinates": [
          -29.999134288965806,
          -11.721279482593868
        ]
      }
    },
    {
      "type": "Feature",
      "properties": {
        "norad_id": 55976,
        "name": "TIANMU-1 06",
        "group": "weather",
        "lat": 28.102556937673757,
        "lon": -23.924486637580944,
        "alt_km": 440.6289072827485,
        "timestamp": "2025-12-15T04:01:20.086778+00:00",
        "meta_object_name": "TIANMU-1 06",
        "meta_object_id": "2023-039D",
        "meta_epoch": "2025-12-14T08:40:15.006720",
        "meta_mean_motion": 15.41374762,
        "meta_eccentricity": 0.00046218,
        "meta_inclination": 97.5095,
        "meta_ra_of_asc_node": 151.207,
        "meta_arg_of_pericenter": 68.4039,
        "meta_mean_anomaly": 291.7699,
        "meta_ephemeris_type": 0,
        "meta_classification_type": "U",
        "meta_norad_cat_id": 55976,
        "meta_element_set_no": 999,
        "meta_rev_at_epoch": 15231,
        "meta_bstar": 0.00040741575,
        "meta_mean_motion_dot": 0.00016943,
        "meta_mean_motion_ddot": 0,
        "tle_line1": "1 55976U 23039D   25348.36128480  .00016943  00000+0  40742-3 0  9995",
        "tle_line2": "2 55976  97.5095 151.2070 0004621  68.4039 291.7699 15.41374762152313"
      },
      "geometry": {
        "type": "Point",
        "coordinates": [
          -23.924486637580944,
          28.102556937673757
        ]
      }
    },
    {
      "type": "Feature",
      "properties": {
        "norad_id": 56232,
        "name": "FENGYUN 3G",
        "group": "weather",
        "lat": -1.7406570937998629,
        "lon": -146.54049656432716,
        "alt_km": 412.35660543009544,
        "timestamp": "2025-12-15T04:01:20.086795+00:00",
        "meta_object_name": "FENGYUN 3G",
        "meta_object_id": "2023-055A",
        "meta_epoch": "2025-12-14T04:52:50.215872",
        "meta_mean_motion": 15.53758908,
        "meta_eccentricity": 0.00093472,
        "meta_inclination": 49.993,
        "meta_ra_of_asc_node": 219.9018,
        "meta_arg_of_pericenter": 155.2051,
        "meta_mean_anomaly": 204.9368,
        "meta_ephemeris_type": 0,
        "meta_classification_type": "U",
        "meta_norad_cat_id": 56232,
        "meta_element_set_no": 999,
        "meta_rev_at_epoch": 15125,
        "meta_bstar": 0.00052721428,
        "meta_mean_motion_dot": 0.00034214,
        "meta_mean_motion_ddot": 0,
        "tle_line1": "1 56232U 23055A   25348.20335898  .00034214  00000+0  52721-3 0  9996",
        "tle_line2": "2 56232  49.9930 219.9018 0009347 155.2051 204.9368 15.53758908151253"
      },
      "geometry": {
        "type": "Point",
        "coordinates": [
          -146.54049656432716,
          -1.7406570937998629
        ]
      }
    },
    {
      "type": "Feature",
      "properties": {
        "norad_id": 57166,
        "name": "METEOR-M2 3",
        "group": "weather",
        "lat": 80.72684415701616,
        "lon": -25.922022521938032,
        "alt_km": 804.0706029571802,
        "timestamp": "2025-12-15T04:01:20.086811+00:00",
        "meta_object_name": "METEOR-M2 3",
        "meta_object_id": "2023-091A",
        "meta_epoch": "2025-12-14T07:22:53.018112",
        "meta_mean_motion": 14.24026263,
        "meta_eccentricity": 0.00038183,
        "meta_inclination": 98.6376,
        "meta_ra_of_asc_node": 41.8195,
        "meta_arg_of_pericenter": 4.4896,
        "meta_mean_anomaly": 355.6317,
        "meta_ephemeris_type": 0,
        "meta_classification_type": "U",
        "meta_norad_cat_id": 57166,
        "meta_element_set_no": 999,
        "meta_rev_at_epoch": 12820,
        "meta_bstar": 2.7417303e-05,
        "meta_mean_motion_dot": 1.9e-07,
        "meta_mean_motion_ddot": 0,
        "tle_line1": "1 57166U 23091A   25348.30755808  .00000019  00000+0  27417-4 0  9992",
        "tle_line2": "2 57166  98.6376  41.8195 0003818   4.4896 355.6317 14.24026263128208"
      },
      "geometry": {
        "type": "Point",
        "coordinates": [
          -25.922022521938032,
          80.72684415701616
        ]
      }
    },
    {
      "type": "Feature",
      "properties": {
        "norad_id": 57399,
        "name": "TIANMU-1 07",
        "group": "weather",
        "lat": 76.23671946266076,
        "lon": -109.53583764964782,
        "alt_km": 470.8644785446413,
        "timestamp": "2025-12-15T04:01:20.086827+00:00",
        "meta_object_name": "TIANMU-1 07",
        "meta_object_id": "2023-101A",
        "meta_epoch": "2025-12-14T07:08:55.403808",
        "meta_mean_motion": 15.2810173,
        "meta_eccentricity": 0.00055495,
        "meta_inclination": 97.2882,
        "meta_ra_of_asc_node": 38.1133,
        "meta_arg_of_pericenter": 77.716,
        "meta_mean_anomaly": 282.4701,
        "meta_ephemeris_type": 0,
        "meta_classification_type": "U",
        "meta_norad_cat_id": 57399,
        "meta_element_set_no": 999,
        "meta_rev_at_epoch": 13339,
        "meta_bstar": 0.00031647341,
        "meta_mean_motion_dot": 8.604e-05,
        "meta_mean_motion_ddot": 0,
        "tle_line1": "1 57399U 23101A   25348.29786347  .00008604  00000+0  31647-3 0  9999",
        "tle_line2": "2 57399  97.2882  38.1133 0005549  77.7160 282.4701 15.28101730133392"
      },
      "geometry": {
        "type": "Point",
        "coordinates": [
          -109.53583764964782,
          76.23671946266076
        ]
      }
    }
  ]
}